NORAD_CAT_ID,OBJECT_NAME,OBJECT_TYPE,EPOCH,MEAN_MOTION,ECCENTRICITY,INCLINATION,RA_OF_ASC_NODE,ARG_OF_PERICENTER,MEAN_ANOMALY,BSTAR,MEAN_MOTION_DOT,MEAN_MOTION_DDOT,TLE_LINE0,TLE_LINE1,TLE_LINE2,SEMIMAJOR_AXIS,PERIOD,APOGEE,PERIGEE,DECAYED
54188.0,STARLINK-5238,PAYLOAD,2023-06-09 11:26:57,15.08824485,0.0001162,53.2146,182.3659,85.1864,274.926,-7.3918e-05,-1.463e-05,0.0,0 STARLINK-5238,1 54188U 22141AH  23160.47705866 -.00001463  00000-0 -73918-4 0  9999,2 54188  53.2146 182.3659 0001162  85.1864 274.9260 15.08824485 34399,6917.928,95.439,540.597,538.989,0.0
54188.0,STARLINK-5238,PAYLOAD,2023-06-10 01:45:25,15.08828228,9.98e-05,53.2149,179.6904,79.6678,280.4427,4.3304e-05,4.01e-06,0.0,0 STARLINK-5238,1 54188U 22141AH  23161.07321650  .00000401  00000-0  43304-4 0  9996,2 54188  53.2149 179.6904 0000998  79.6678 280.4427 15.08828228 34713,6917.916,95.438,540.472,539.091,0.0
54188.0,STARLINK-5238,PAYLOAD,2023-06-10 08:06:58,15.08832901,0.000104,53.2152,178.5,85.8213,274.2898,5.3328e-05,5.61e-06,0.0,0 STARLINK-5238,1 54188U 22141AH  23161.33817493  .00000561  00000-0  53328-4 0  9994,2 54188  53.2152 178.5000 0001040  85.8213 274.2898 15.08832901 34520,6917.902,95.438,540.487,539.048,0.0
54188.0,STARLINK-5238,PAYLOAD,2023-06-10 20:50:03,15.0883324,9.59e-05,53.2156,176.1214,82.2016,277.9085,0.00011311,1.513e-05,0.0,0 STARLINK-5238,1 54188U 22141AH  23161.86809709  .00001513  00000-0  11311-3 0  9996,2 54188  53.2156 176.1214 0000959  82.2016 277.9085 15.08833240 34609,6917.901,95.438,540.429,539.103,0.0
54188.0,STARLINK-5238,PAYLOAD,2023-06-11 09:33:08,15.08837069,9.73e-05,53.2153,173.7423,81.1115,278.9987,0.00012694,1.733e-05,0.0,0 STARLINK-5238,1 54188U 22141AH  23162.39801635  .00001733  00000-0  12694-3 0  9994,2 54188  53.2153 173.7423 0000973  81.1115 278.9987 15.08837069 34914,6917.889,95.438,540.427,539.081,0.0
54188.0,STARLINK-5238,PAYLOAD,2023-06-11 11:08:31,15.08837554,9.76e-05,53.2151,173.4448,80.8574,279.2529,0.00013071,1.793e-05,0.0,0 STARLINK-5238,1 54188U 22141AH  23162.46425619  .00001793  00000-0  13071-3 0  9992,2 54188  53.2151 173.4448 0000976  80.8574 279.2529 15.08837554 34694,6917.888,95.438,540.428,539.078,0.0
54188.0,STARLINK-5238,PAYLOAD,2023-06-11 17:30:04,15.08839881,9.93e-05,53.2153,172.2553,81.3949,278.7155,0.00012769,1.745e-05,0.0,0 STARLINK-5238,1 54188U 22141AH  23162.72921508  .00001745  00000-0  12769-3 0  9999,2 54188  53.2153 172.2553 0000993  81.3949 278.7155 15.08839881 34730,6917.881,95.438,540.433,539.059,0.0
54188.0,STARLINK-5238,PAYLOAD,2023-06-11 23:51:36,15.08843764,0.0001004,53.2152,171.0654,79.2929,280.8176,0.00011028,1.468e-05,0.0,0 STARLINK-5238,1 54188U 22141AH  23162.99417299  .00001468  00000-0  11028-3 0  9994,2 54188  53.2152 171.0654 0001004  79.2929 280.8176 15.08843764 34772,6917.869,95.437,540.428,539.039,0.0
54188.0,STARLINK-5238,PAYLOAD,2023-06-12 17:20:50,15.088473,0.0001003,53.2151,167.7942,78.2173,281.8931,8.2067e-05,1.019e-05,0.0,0 STARLINK-5238,1 54188U 22141AH  23163.72280863  .00001019  00000-0  82067-4 0  9995,2 54188  53.2151 167.7942 0001003  78.2173 281.8931 15.08847300 35111,6917.858,95.437,540.417,539.029,0.0
54188.0,STARLINK-5238,PAYLOAD,2023-06-13 09:14:41,15.08847806,0.0001036,53.2151,164.8206,78.0198,282.091,4.1086e-05,3.66e-06,0.0,0 STARLINK-5238,1 54188U 22141AH  23164.38520631  .00000366  00000-0  41086-4 0  9998,2 54188  53.2151 164.8206 0001036  78.0198 282.0910 15.08847806 34988,6917.857,95.437,540.438,539.005,0.0
54188.0,STARLINK-5238,PAYLOAD,2023-06-13 23:33:10,15.08846317,0.0001107,53.215,162.1438,77.9211,282.1905,-1.3811e-05,-5.08e-06,0.0,0 STARLINK-5238,1 54188U 22141AH  23164.98136632 -.00000508  00000-0 -13811-4 0  9993,2 54188  53.2150 162.1438 0001107  77.9211 282.1905 15.08846317 35306,6917.861,95.437,540.492,538.96,0.0
54188.0,STARLINK-5238,PAYLOAD,2023-06-14 17:02:24,15.08845705,0.0001108,53.2152,158.8732,78.3148,281.7969,2.7681e-06,-2.44e-06,0.0,0 STARLINK-5238,1 54188U 22141AH  23165.71000304 -.00000244  00000-0  27681-5 0  9998,2 54188  53.2152 158.8732 0001108  78.3148 281.7969 15.08845705 35183,6917.863,95.437,540.494,538.961,0.0
54188.0,STARLINK-5238,PAYLOAD,2023-06-15 08:56:15,15.08843304,0.000108,53.2151,155.899,86.0268,274.0848,6.2408e-06,-1.88e-06,0.0,0 STARLINK-5238,1 54188U 22141AH  23166.37240235 -.00000188  00000-0  62408-5 0  9993,2 54188  53.2151 155.8990 0001080  86.0268 274.0848 15.08843304 35514,6917.87,95.437,540.482,538.988,0.0
54188.0,STARLINK-5238,PAYLOAD,2023-06-16 08:47:02,15.08844758,0.00011,53.2153,151.4381,86.7893,273.3225,5.5972e-05,6.03e-06,0.0,0 STARLINK-5238,1 54188U 22141AH  23167.36599812  .00000603  00000-0  55972-4 0  9999,2 54188  53.2153 151.4381 0001100  86.7893 273.3225 15.08844758 35432,6917.866,95.437,540.492,538.97,0.0
54188.0,STARLINK-5238,PAYLOAD,2023-06-16 23:05:30,15.08837754,0.0001112,53.2153,148.7611,88.571,271.5409,1.4775e-05,-5.3e-07,0.0,0 STARLINK-5238,1 54188U 22141AH  23167.96216315 -.00000053  00000-0  14775-4 0  9995,2 54188  53.2153 148.7611 0001112  88.5710 271.5409 15.08837754 35755,6917.887,95.438,540.522,538.983,0.0
54188.0,STARLINK-5238,PAYLOAD,2023-06-17 05:27:03,15.08839388,0.0001111,53.2153,147.5714,89.018,271.094,2.6747e-05,1.38e-06,0.0,0 STARLINK-5238,1 54188U 22141AH  23168.22712179  .00000138  00000-0  26747-4 0  9999,2 54188  53.2153 147.5714 0001111  89.0180 271.0940 15.08839388 35561,6917.882,95.438,540.516,538.979,0.0
54188.0,STARLINK-5238,PAYLOAD,2023-06-17 22:56:18,15.08832734,0.000114,53.2153,144.3001,88.1854,271.9269,-5.557e-05,-1.172e-05,0.0,0 STARLINK-5238,1 54188U 22141AH  23168.95577051 -.00001172  00000-0 -55570-4 0  9994,2 54188  53.2153 144.3001 0001140  88.1854 271.9269 15.08832734 35904,6917.903,95.438,540.556,538.979,0.0
54188.0,STARLINK-5238,PAYLOAD,2023-06-18 05:17:50,15.08836604,0.0001145,53.2152,143.1108,87.8363,272.276,-1.9839e-05,-6.04e-06,0.0,0 STARLINK-5238,1 54188U 22141AH  23169.22072772 -.00000604  00000-0 -19839-4 0  9992,2 54188  53.2152 143.1108 0001145  87.8363 272.2760 15.08836604 35713,6917.891,95.438,540.548,538.964,0.0
54188.0,STARLINK-5238,PAYLOAD,2023-06-18 14:50:09,15.08836119,0.000114,53.2155,141.3267,86.2119,273.9004,-6.5315e-08,-2.89e-06,0.0,0 STARLINK-5238,1 54188U 22141AH  23169.61816828 -.00000289  00000-0 -65315-7 0  9995,2 54188  53.2155 141.3267 0001140  86.2119 273.9004 15.08836119 35775,6917.892,95.438,540.546,538.969,0.0
54188.0,STARLINK-5238,PAYLOAD,2023-06-18 22:47:05,15.08835218,0.0001131,53.2154,139.8413,90.3681,269.7441,1.7606e-05,-8e-08,0.0,0 STARLINK-5238,1 54188U 22141AH  23169.94936932 -.00000008  00000-0  17606-4 0  9995,2 54188  53.2154 139.8413 0001131  90.3681 269.7441 15.08835218 36058,6917.895,95.438,540.542,538.978,0.0
54188.0,STARLINK-5238,PAYLOAD,2023-06-19 08:19:23,15.08840587,0.0001139,53.2154,138.0579,92.045,268.0673,6.0536e-05,6.76e-06,0.0,0 STARLINK-5238,1 54188U 22141AH  23170.34680508  .00000676  00000-0  60536-4 0  9996,2 54188  53.2154 138.0579 0001139  92.0450 268.0673 15.08840587 35887,6917.879,95.438,540.532,538.956,0.0
54188.0,STARLINK-5238,PAYLOAD,2023-06-19 14:40:56,15.08836594,0.0001116,53.2152,136.8685,91.092,269.02,5.1556e-05,5.33e-06,0.0,0 STARLINK-5238,1 54188U 22141AH  23170.61176840  .00000533  00000-0  51556-4 0  9999,2 54188  53.2152 136.8685 0001116  91.0920 269.0200 15.08836594 35920,6917.891,95.438,540.528,538.984,0.0
54188.0,STARLINK-5238,PAYLOAD,2023-06-20 06:34:48,15.08831367,0.0001084,53.2154,133.8948,94.8484,265.2632,2.667e-05,1.37e-06,0.0,0 STARLINK-5238,1 54188U 22141AH  23171.27417507  .00000137  00000-0  26670-4 0  9999,2 54188  53.2154 133.8948 0001084  94.8484 265.2632 15.08831367 36258,6917.907,95.438,540.522,539.022,0.0
54188.0,STARLINK-5238,PAYLOAD,2023-06-20 20:53:16,15.0883895,0.00011,53.2154,131.2185,93.3111,266.8007,4.3293e-05,4.01e-06,0.0,0 STARLINK-5238,1 54188U 22141AH  23171.87033124  .00000401  00000-0  43293-4 0  9998,2 54188  53.2154 131.2185 0001100  93.3111 266.8007 15.08838950 36116,6917.884,95.438,540.51,538.988,0.0
54188.0,STARLINK-5238,PAYLOAD,2023-06-21 01:39:25,15.08841486,0.0001108,53.2154,130.3265,93.276,266.8359,5.9625e-05,6.61e-06,0.0,0 STARLINK-5238,1 54188U 22141AH  23172.06904896  .00000661  00000-0  59625-4 0  9997,2 54188  53.2154 130.3265 0001108  93.2760 266.8359 15.08841486 36378,6917.876,95.437,540.507,538.974,0.0
54188.0,STARLINK-5238,PAYLOAD,2023-06-21 04:50:11,15.08846813,0.0001136,53.2154,129.7316,91.9488,268.1634,6.303e-05,7.16e-06,0.0,0 STARLINK-5238,1 54188U 22141AH  23172.20152562  .00000716  00000-0  63030-4 0  9994,2 54188  53.2154 129.7316 0001136  91.9488 268.1634 15.08846813 36167,6917.86,95.437,540.51,538.939,0.0
54188.0,STARLINK-5238,PAYLOAD,2023-06-21 14:22:31,15.088401,0.0001261,53.216,127.9483,84.6018,275.5118,1.176e-05,-1.01e-06,0.0,0 STARLINK-5238,1 54188U 22141AH  23172.59897177 -.00000101  00000-0  11760-4 0  9996,2 54188  53.2160 127.9483 0001261  84.6018 275.5118 15.08840100 36225,6917.88,95.438,540.617,538.873,0.0
54188.0,STARLINK-5238,PAYLOAD,2023-06-22 03:05:36,15.08831386,0.0001397,53.2162,125.5696,80.7956,279.3194,1.7466e-05,-1e-07,0.0,0 STARLINK-5238,1 54188U 22141AH  23173.12889902 -.00000010  00000-0  17466-4 0  9991,2 54188  53.2162 125.5696 0001397  80.7956 279.3194 15.08831386 36531,6917.907,95.438,540.738,538.805,0.0
54188.0,STARLINK-5238,PAYLOAD,2023-06-23 02:56:23,15.0884757,0.0001248,53.2162,121.1054,101.7727,258.3405,1.6585e-05,-2.4e-07,0.0,0 STARLINK-5238,1 54188U 22141AH  23174.12248912 -.00000024  00000-0  16585-4 0  9998,2 54188  53.2162 121.1054 0001248 101.7727 258.3405 15.08847570 36686,6917.857,95.437,540.586,538.859,0.0
54188.0,STARLINK-5238,PAYLOAD,2023-06-24 02:47:10,15.08840616,0.0001444,53.2172,116.6441,97.6316,262.484,9.5588e-05,1.234e-05,0.0,0 STARLINK-5238,1 54188U 22141AH  23175.11609060  .00001234  00000-0  95588-4 0  9996,2 54188  53.2172 116.6441 0001444  97.6316 262.4840 15.08840616 36831,6917.879,95.438,540.742,538.745,0.0
